{"type":"FeatureCollection","features":[{"type":"Feature","properties":{"kind":"rail","name":"JR福知山線"},"geometry":{"type":"LineString","coordinates":[[135.3731818,34.8167324],[135.3738728,34.8166819]]}},{"type":"Feature","properties":{"kind":"rail","name":"JR福知山線"},"geometry":{"type":"LineString","coordinates":[[135.3929909,34.8211502],[135.3937856,34.8216814],[135.3941457,34.8219195],[135.394298,34.8220205],[135.3949648,34.8224583],[135.3953281,34.8226966],[135.3957742,34.8229914],[135.395985,34.823138],[135.3967453,34.8236247],[135.397163,34.8238454],[135.3972457,34.8238831],[135.3974041,34.8239518],[135.3976966,34.8240488],[135.3979157,34.8241239],[135.3981795,34.8241887],[135.3985021,34.82425],[135.3988625,34.8243089],[135.3996019,34.8244159],[135.4001558,34.8245009],[135.400235,34.8245161],[135.4003921,34.8245372],[135.4009107,34.8246101],[135.4017154,34.8247429],[135.402345,34.8248464],[135.4028937,34.8249345],[135.4030832,34.8249604],[135.4035248,34.8250396],[135.4037719,34.8250919],[135.4039259,34.8251197],[135.4041141,34.8251658],[135.404415,34.8252361],[135.4046331,34.8252893],[135.4048045,34.8253338],[135.404989,34.825388]]}},{"type":"Feature","properties":{"kind":"rail","name":"JR福知山線"},"geometry":{"type":"LineString","coordinates":[[135.4092245,34.8251269],[135.4104437,34.8247663]]}},{"type":"Feature","properties":{"kind":"rail","name":"JR福知山線"},"geometry":{"type":"LineString","coordinates":[[135.3089472,34.8269744],[135.3089652,34.8265821]]}},{"type":"Feature","properties":{"kind":"rail","name":"JR福知山線"},"geometry":{"type":"LineString","coordinates":[[135.4225999,34.7641227],[135.422867,34.762663],[135.4229289,34.7623459],[135.422942,34.762279],[135.422956,34.7621897],[135.4229954,34.7619805],[135.4230321,34.7617833],[135.4231201,34.7613325],[135.4232121,34.760838],[135.4232468,34.7606516],[135.423354,34.7601029],[135.4234038,34.7598219],[135.4234321,34.7596401],[135.4234695,34.759459],[135.4235054,34.7592699],[135.4235853,34.7588158],[135.4236343,34.7585792],[135.423679,34.7583216],[135.4238417,34.7574535],[135.4238599,34.7573553],[135.4238709,34.7573122],[135.4239567,34.7568316],[135.424047,34.7563502]]}},{"type":"Feature","properties":{"kind":"rail","name":"JR福知山線"},"geometry":{"type":"LineString","coordinates":[[135.3020898,34.859386],[135.3024203,34.8591409],[135.3028613,34.8587616],[135.3033077,34.8583335],[135.3038395,34.8577109],[135.3044743,34.8569454],[135.304896,34.8564419],[135.3052452,34.8560275]]}},{"type":"Feature","properties":{"kind":"rail","name":"JR福知山線"},"geometry":{"type":"LineString","coordinates":[[135.3205191,34.8174834],[135.3208442,34.8175546],[135.3211737,34.8176533],[135.3214527,34.8177568],[135.321788,34.8178944]]}},{"type":"Feature","properties":{"kind":"rail","name":"JR福知山線"},"geometry":{"type":"LineString","coordinates":[[135.3058755,34.8552504],[135.3064489,34.8545892]]}},{"type":"Feature","properties":{"kind":"rail","name":"JR福知山線"},"geometry":{"type":"LineString","coordinates":[[135.4196227,34.799887],[135.4196824,34.7994578],[135.4197397,34.7990571],[135.4197819,34.7988312],[135.4198048,34.7987134],[135.4198306,34.7985604],[135.4199513,34.7978189],[135.4200194,34.7972284],[135.4200413,34.7970492],[135.4200652,34.7968545],[135.4201094,34.7965365],[135.4201492,34.7962098],[135.4201905,34.7959228],[135.4202962,34.7952952],[135.4204274,34.7945198],[135.4204317,34.7945005],[135.4204643,34.79429],[135.4205377,34.7938268],[135.4205854,34.7935195],[135.4207275,34.7926246],[135.4207631,34.7924099],[135.4208356,34.7919829],[135.4208437,34.7919352],[135.4209695,34.7911009],[135.4211464,34.7899591],[135.421217,34.789624],[135.421276,34.789241],[135.421296,34.7891],[135.4213678,34.7884482],[135.4213988,34.7880473],[135.421433,34.787218],[135.4214609,34.7868793],[135.421487,34.786474],[135.421494,34.786209],[135.4215001,34.7860778],[135.4215071,34.7858394],[135.4215142,34.7856088],[135.4215376,34.7852429],[135.4215645,34.7846648],[135.4215793,34.784464],[135.4216141,34.7835833],[135.4216235,34.7834766],[135.42165,34.783005],[135.42167,34.78263],[135.4216923,34.7820077],[135.4216961,34.7818181],[135.4217235,34.781067]]}},{"type":"Feature","properties":{"kind":"rail","name":"JR福知山線"},"geometry":{"type":"LineString","coordinates":[[135.4218129,34.7765959],[135.421711,34.7745128],[135.4216496,34.7718674],[135.421633,34.7711823],[135.4216208,34.7705166],[135.4216195,34.7700521],[135.4216598,34.769414],[135.4217434,34.7687375],[135.4218982,34.767894],[135.4219422,34.7676633],[135.4222017,34.7662511],[135.4222092,34.7662173],[135.4222146,34.7661801],[135.4224611,34.7648475]]}},{"type":"Feature","properties":{"kind":"rail","name":"JR福知山線"},"geometry":{"type":"LineString","coordinates":[[135.4217235,34.781067],[135.4217616,34.7803382]]}},{"type":"Feature","properties":{"kind":"rail","name":"JR福知山線"},"geometry":{"type":"LineString","coordinates":[[135.3378085,34.8132947],[135.3380002,34.8131175],[135.3381818,34.8129673],[135.3383151,34.8128543],[135.3384836,34.8127239],[135.3388119,34.8125022],[135.3388177,34.8124982],[135.3389708,34.8123921],[135.3393329,34.8121993],[135.3396238,34.8120342],[135.3403173,34.8117146]]}},{"type":"Feature","properties":{"kind":"rail","name":"JR福知山線"},"geometry":{"type":"LineString","coordinates":[[135.4194131,34.8012649],[135.4194492,34.8010553],[135.4194814,34.8008428],[135.4195493,34.8004183],[135.4195887,34.8001457],[135.4196227,34.799887]]}},{"type":"Feature","properties":{"kind":"rail","name":"JR福知山線"},"geometry":{"type":"LineString","coordinates":[[135.3089652,34.8265821],[135.3090033,34.8256734],[135.3090216,34.825349],[135.3090387,34.825061],[135.309046,34.8247487],[135.3090576,34.8244539],[135.3090734,34.8241738],[135.309104,34.8236681],[135.3092646,34.8229533],[135.3093738,34.8226429],[135.3095667,34.8221859],[135.3098217,34.8217531],[135.3101141,34.8213195],[135.3103077,34.8211118],[135.3105794,34.820818],[135.3109065,34.8205431],[135.311466,34.820098],[135.3117486,34.8199125],[135.312101,34.819698],[135.3125574,34.8194768],[135.3129811,34.8192705],[135.3133308,34.8190925],[135.3136414,34.818937],[135.3139429,34.8187934],[135.314595,34.8184721],[135.3149227,34.8183124],[135.3152333,34.8181563],[135.3155587,34.8180024],[135.3157407,34.8179162],[135.3162206,34.8177177],[135.3165658,34.8176037],[135.3169087,34.8175025],[135.3172837,34.8174212],[135.3174704,34.8173983]]}},{"type":"Feature","properties":{"kind":"rail","name":"JR福知山線"},"geometry":{"type":"LineString","coordinates":[[135.4150315,34.8139646],[135.4150725,34.8138458],[135.4151268,34.8137039],[135.4152806,34.8133588],[135.4157068,34.8124025],[135.415953,34.8118496],[135.416201,34.8112967],[135.4165306,34.8105483],[135.4166201,34.8103548],[135.4169075,34.8096847],[135.4171161,34.8092248],[135.4172549,34.8089031],[135.4173295,34.8087363],[135.417516,34.808317],[135.4177918,34.8077007],[135.4179486,34.8073431],[135.4181477,34.8068941],[135.4182348,34.8066601],[135.4184161,34.8062105],[135.418469,34.8060493],[135.418531,34.805827],[135.4185523,34.8057661],[135.4186003,34.8055949],[135.4186707,34.8052922],[135.4186946,34.8051897],[135.4189736,34.8037277],[135.4190388,34.8033866],[135.4190596,34.8032699],[135.4190851,34.8031405],[135.4191283,34.8029161],[135.4191474,34.8028112],[135.4191771,34.802656],[135.4192153,34.8024282],[135.419241,34.8022899],[135.4192592,34.8021745],[135.4192845,34.8020259],[135.4193096,34.801878]]}},{"type":"Feature","properties":{"kind":"rail","name":"JR福知山線"},"geometry":{"type":"LineString","coordinates":[[135.3191368,34.8172916],[135.3194375,34.8173154],[135.3196655,34.8173377]]}},{"type":"Feature","properties":{"kind":"rail","name":"JR福知山線"},"geometry":{"type":"LineString","coordinates":[[135.3312503,34.8201103],[135.3314881,34.8200489],[135.3316771,34.8199978],[135.3319199,34.8199113],[135.332142,34.8198198],[135.3323654,34.8197192],[135.3326012,34.8195886],[135.3328836,34.819412],[135.3331072,34.8192391],[135.3333711,34.819003],[135.3334263,34.8189498]]}},{"type":"Feature","properties":{"kind":"rail","name":"JR福知山線"},"geometry":{"type":"LineString","coordinates":[[135.3738728,34.8166819],[135.3756251,34.8165583],[135.3759669,34.8165338],[135.3761241,34.8165213]]}},{"type":"Feature","properties":{"kind":"rail","name":"JR福知山線"},"geometry":{"type":"LineString","coordinates":[[135.4148844,34.814919],[135.4149012,34.8146025],[135.4149307,34.8143693],[135.4149585,34.8141957],[135.4150315,34.8139646]]}},{"type":"Feature","properties":{"kind":"rail","name":"JR福知山線"},"geometry":{"type":"LineString","coordinates":[[135.4119962,34.8241221],[135.4123159,34.8239583],[135.412697,34.823691],[135.4129141,34.8235271],[135.4131494,34.823317],[135.413263,34.8231978],[135.4135046,34.8229072],[135.413634,34.822722],[135.4141706,34.8218045],[135.4142787,34.8216234],[135.4145252,34.8211361]]}},{"type":"Feature","properties":{"kind":"rail","name":"JR福知山線"},"geometry":{"type":"LineString","coordinates":[[135.3514671,34.8096644],[135.3517593,34.8096251],[135.3520087,34.809608],[135.3523441,34.8096041]]}},{"type":"Feature","properties":{"kind":"rail","name":"JR福知山線"},"geometry":{"type":"LineString","coordinates":[[135.4248583,34.751821],[135.4248822,34.7516399],[135.424915,34.7514106],[135.4249907,34.7509968],[135.4251565,34.7501195],[135.4252046,34.7498551]]}},{"type":"Feature","properties":{"kind":"rail","name":"JR福知山線"},"geometry":{"type":"LineString","coordinates":[[135.424915,34.7521977],[135.4250498,34.7514635],[135.4251636,34.7508373],[135.4253442,34.7498527],[135.4253934,34.7496465],[135.4254602,34.7492563],[135.4254989,34.7490433],[135.4255752,34.7485568],[135.4256185,34.7482966],[135.4257016,34.7477468],[135.4257147,34.7476598],[135.4257705,34.7473557],[135.425866,34.746835],[135.426077,34.7457077],[135.4262336,34.7448569],[135.4263139,34.7444205],[135.4265045,34.7434121]]}},{"type":"Feature","properties":{"kind":"rail","name":"JR福知山線"},"geometry":{"type":"LineString","coordinates":[[135.4258129,34.746857],[135.4257897,34.7471472],[135.4257705,34.7473557]]}},{"type":"Feature","properties":{"kind":"rail","name":"JR福知山線"},"geometry":{"type":"LineString","coordinates":[[135.4259133,34.7460559],[135.4258777,34.7463861],[135.4258515,34.7466433]]}},{"type":"Feature","properties":{"kind":"rail","name":"JR福知山線"},"geometry":{"type":"LineString","coordinates":[[135.4217184,34.7803363],[135.4216825,34.7811328],[135.4216409,34.7819739],[135.4215877,34.7828967],[135.4215631,34.7835402],[135.4215387,34.784186],[135.4215135,34.7848091],[135.421488,34.785351],[135.4214301,34.7865871],[135.4214169,34.7868785],[135.4213874,34.7875076],[135.4213593,34.7880539],[135.4213322,34.788378],[135.4212815,34.7888524],[135.4212182,34.7892801],[135.4211451,34.7897375],[135.4210747,34.7901788],[135.4209821,34.7907504],[135.4207931,34.7919344],[135.4207864,34.7919762],[135.4206214,34.7930126],[135.4204511,34.7940787],[135.4203884,34.7944789],[135.4203626,34.7946227],[135.4202783,34.7951269],[135.4201869,34.7956458],[135.4201346,34.7959729],[135.4200624,34.7965387],[135.4199921,34.7970333],[135.4199032,34.7978127],[135.4197819,34.7985516],[135.4197517,34.7987063],[135.4196638,34.7991149],[135.4195967,34.799453],[135.4195123,34.7998748],[135.4194845,34.8000407],[135.4194667,34.8001413],[135.4194191,34.8004107],[135.4193573,34.8008323],[135.4193252,34.8010432],[135.4192916,34.8012541]]}},{"type":"Feature","properties":{"kind":"rail","name":"JR福知山線"},"geometry":{"type":"LineString","coordinates":[[135.4257016,34.7477468],[135.4256619,34.7479209],[135.4256244,34.7480645],[135.4255795,34.7482183]]}},{"type":"Feature","properties":{"kind":"rail","name":"JR福知山線"},"geometry":{"type":"LineString","coordinates":[[135.4251788,34.75124],[135.4252914,34.7506292],[135.4254145,34.7499875],[135.4254579,34.7497264],[135.4254731,34.7496118],[135.4254778,34.7494836],[135.4254755,34.7493892]]}},{"type":"Feature","properties":{"kind":"rail","name":"JR福知山線"},"geometry":{"type":"LineString","coordinates":[[135.4254989,34.7490433],[135.4254755,34.7493892],[135.4254567,34.7495203],[135.4253969,34.7498343],[135.4253594,34.7500309],[135.4251401,34.7512198],[135.4250663,34.7516225],[135.424956,34.7522025]]}},{"type":"Feature","properties":{"kind":"rail","name":"JR福知山線"},"geometry":{"type":"LineString","coordinates":[[135.4247619,34.7526023],[135.424782,34.7524505],[135.4248047,34.7522686],[135.4248239,34.7520688]]}},{"type":"Feature","properties":{"kind":"rail","name":"JR福知山線"},"geometry":{"type":"LineString","coordinates":[[135.4259289,34.7405351],[135.4259587,34.7405712],[135.4259876,34.7406052],[135.4260282,34.7406528],[135.4261555,34.7408113],[135.4262511,34.7409695],[135.4263483,34.7411473],[135.4264033,34.7412783],[135.4264691,34.7414478],[135.4265203,34.7416156]]}},{"type":"Feature","properties":{"kind":"rail","name":"JR福知山線"},"geometry":{"type":"LineString","coordinates":[[135.3089158,34.8280163],[135.3089202,34.827787],[135.3089346,34.8274234]]}},{"type":"Feature","properties":{"kind":"rail","name":"JR福知山線"},"geometry":{"type":"LineString","coordinates":[[135.4265587,34.7415961],[135.4265235,34.7414686],[135.4264464,34.7412587],[135.4263971,34.7411461],[135.4263516,34.7410577],[135.4261661,34.740759],[135.4260447,34.7406016],[135.4260138,34.7405691],[135.4259807,34.7405334]]}},{"type":"Feature","properties":{"kind":"rail","name":"JR福知山線"},"geometry":{"type":"LineString","coordinates":[[135.3402322,34.8116089],[135.3393887,34.8119938],[135.339042,34.8121891],[135.3387145,34.8124034],[135.3386587,34.8124399],[135.3384398,34.8125998],[135.3383178,34.8126978],[135.3381448,34.8128376],[135.3380067,34.8129632],[135.3376196,34.8133489],[135.3374917,34.8135038],[135.3373938,34.8136238],[135.3371108,34.814007],[135.336915,34.814269],[135.3367313,34.8145212],[135.3365679,34.8147499],[135.3364014,34.8149704],[135.3361586,34.8153029],[135.3358421,34.8157312],[135.3355688,34.8160998],[135.3353164,34.8164436],[135.3350967,34.8167384],[135.3345241,34.8175245],[135.3342693,34.817868],[135.3339311,34.8183274],[135.3336534,34.8186566],[135.3333986,34.818933]]}},{"type":"Feature","properties":{"kind":"rail","name":"JR福知山線"},"geometry":{"type":"LineString","coordinates":[[135.3378085,34.8132947],[135.3381323,34.8129515],[135.3383861,34.8126927]]}},{"type":"Feature","properties":{"kind":"rail","name":"JR福知山線"},"geometry":{"type":"LineString","coordinates":[[135.4185108,34.8057637],[135.4182543,34.8065107],[135.4180021,34.8071174],[135.4175529,34.8081261],[135.417353,34.8085743],[135.4171224,34.809094],[135.4167922,34.8098423],[135.4165323,34.8104363],[135.4159905,34.8116695],[135.415733,34.812231],[135.4154902,34.8127794],[135.4151898,34.8134488],[135.4150584,34.8137626],[135.4149592,34.8140599],[135.4148921,34.8143517],[135.4148613,34.8145972],[135.4148439,34.8149386]]}},{"type":"Feature","properties":{"kind":"rail","name":"JR福知山線"},"geometry":{"type":"LineString","coordinates":[[135.404989,34.825388],[135.4053013,34.8254939],[135.4055929,34.8255751],[135.4058732,34.8256356],[135.4061492,34.8256737],[135.4063533,34.8256951],[135.4066105,34.825709],[135.4068602,34.8257149],[135.4071714,34.8256984],[135.4074758,34.8256742],[135.407677,34.8256444],[135.4079318,34.8255949],[135.4081343,34.8255454],[135.4083998,34.8254716],[135.4104846,34.824849]]}},{"type":"Feature","properties":{"kind":"rail","name":"JR福知山線"},"geometry":{"type":"LineString","coordinates":[[135.4104041,34.8246448],[135.4095893,34.8248763],[135.4082134,34.8252944],[135.4080431,34.825345],[135.4078178,34.8254011],[135.4075509,34.8254584],[135.4073202,34.8254936],[135.4071033,34.8255183],[135.4069933,34.8255259],[135.4068388,34.8255366],[135.4066416,34.8255421],[135.4063198,34.8255366],[135.4060151,34.8255102],[135.4055926,34.8254444],[135.4049213,34.8253237]]}},{"type":"Feature","properties":{"kind":"rail","name":"JR福知山線"},"geometry":{"type":"LineString","coordinates":[[135.3930027,34.8211139],[135.3920937,34.8205192],[135.3916109,34.8201823],[135.39105,34.8198192],[135.3904119,34.8194028],[135.3898943,34.8190725],[135.3897509,34.8189732],[135.3896207,34.8188831],[135.3891754,34.8186013],[135.388805,34.8183725],[135.3885985,34.8182624],[135.3884781,34.8182071],[135.3880594,34.8180202],[135.3876573,34.8178592],[135.3870482,34.8176524],[135.3865791,34.8175069],[135.3858626,34.8172869],[135.3846801,34.8169211],[135.3837091,34.816604],[135.382534,34.8162519],[135.3821749,34.8161746],[135.3817484,34.8161043],[135.38111,34.8160608],[135.3806881,34.8160626],[135.3804285,34.816078],[135.3796828,34.8161462],[135.3790123,34.8162145],[135.3781811,34.8162914],[135.377698,34.8163488],[135.3773815,34.8163797],[135.3763384,34.8164675],[135.3761207,34.8164851]]}},{"type":"Feature","properties":{"kind":"rail","name":"JR福知山線"},"geometry":{"type":"LineString","coordinates":[[135.4049213,34.8253237],[135.4047604,34.8252863],[135.4041124,34.8251236],[135.4037503,34.8250454],[135.4030782,34.8249294],[135.4030451,34.824923],[135.4027646,34.8248759],[135.4016244,34.8246862],[135.4002614,34.8244758],[135.4001159,34.8244499],[135.3996613,34.8243816],[135.3991026,34.8242942],[135.3981686,34.8241415],[135.3979353,34.8240865],[135.3976378,34.8239916],[135.3973988,34.8239081],[135.3972244,34.8238301],[135.3971845,34.823811],[135.3968492,34.8236261],[135.396636,34.8235116],[135.3961572,34.8231989],[135.3957985,34.8229659],[135.3953959,34.822691],[135.3945874,34.8221632],[135.3940973,34.8218315],[135.3934938,34.8214352],[135.3930027,34.8211139]]}},{"type":"Feature","properties":{"kind":"rail","name":"JR福知山線"},"geometry":{"type":"LineString","coordinates":[[135.4253301,34.7493006],[135.4253934,34.7491021],[135.4254427,34.7489316],[135.4255011,34.7486929]]}},{"type":"Feature","properties":{"kind":"rail","name":"JR福知山線"},"geometry":{"type":"LineString","coordinates":[[135.3334263,34.8189498],[135.3335931,34.8187893],[135.3338106,34.8185558],[135.3340209,34.818286],[135.3340943,34.8181804],[135.3342336,34.8179879],[135.3343761,34.8177955],[135.3348545,34.8171462],[135.3351195,34.8167793],[135.3354875,34.8162847]]}},{"type":"Feature","properties":{"kind":"rail","name":"JR福知山線"},"geometry":{"type":"LineString","coordinates":[[135.3905303,34.8195205],[135.3912092,34.8199601],[135.3915143,34.8201747],[135.3917517,34.8203398],[135.3919199,34.8204535],[135.3920553,34.8205353],[135.3922368,34.8206578],[135.392442,34.8207932],[135.3927072,34.8209655],[135.3929244,34.8211058],[135.3929909,34.8211502]]}},{"type":"Feature","properties":{"kind":"rail","name":"JR福知山線"},"geometry":{"type":"LineString","coordinates":[[135.3333986,34.818933],[135.3331508,34.8191529],[135.3329949,34.8192872],[135.3328868,34.8193649],[135.3327326,34.8194665],[135.3326062,34.8195459],[135.3324608,34.8196253],[135.3322484,34.8197281],[135.3319909,34.8198448],[135.331746,34.8199371],[135.3315259,34.8200072],[135.3312435,34.8200747]]}},{"type":"Feature","properties":{"kind":"rail","name":"JR福知山線"},"geometry":{"type":"LineString","coordinates":[[135.3523441,34.8096041],[135.3525467,34.8096051],[135.3527544,34.8096191],[135.3530403,34.8096548],[135.3531858,34.8096795],[135.3533761,34.8097109],[135.3536484,34.8097723],[135.3538773,34.8098335],[135.3541168,34.8099263],[135.3544187,34.8100496],[135.3547098,34.8102001],[135.3561767,34.8110159],[135.3569604,34.8114518],[135.3579207,34.811961]]}},{"type":"Feature","properties":{"kind":"rail","name":"JR福知山線"},"geometry":{"type":"LineString","coordinates":[[135.3579207,34.811961],[135.3579688,34.8119865]]}},{"type":"Feature","properties":{"kind":"rail","name":"JR福知山線"},"geometry":{"type":"LineString","coordinates":[[135.3580072,34.8119647],[135.3579563,34.8119377]]}},{"type":"Feature","properties":{"kind":"rail","name":"JR福知山線"},"geometry":{"type":"LineString","coordinates":[[135.3579688,34.8119865],[135.3580872,34.8120493],[135.3605839,34.8133555],[135.3606461,34.8133894],[135.3607755,34.813457],[135.3613223,34.8137429],[135.3619006,34.8140231],[135.3624431,34.8142537],[135.3627425,34.814374],[135.363273,34.8145746],[135.3637124,34.8147294],[135.3637987,34.8147612]]}},{"type":"Feature","properties":{"kind":"rail","name":"JR福知山線"},"geometry":{"type":"LineString","coordinates":[[135.3312435,34.8200747],[135.3309472,34.8201397],[135.330792,34.8201672],[135.3302972,34.8202414],[135.3299638,34.820299]]}},{"type":"Feature","properties":{"kind":"rail","name":"JR福知山線"},"geometry":{"type":"LineString","coordinates":[[135.3579563,34.8119377],[135.3572998,34.81159],[135.3562,34.8109967],[135.356136,34.8109622],[135.3552079,34.8104359],[135.3547064,34.810143],[135.3544942,34.8100353],[135.3543175,34.809958],[135.354001,34.8098435],[135.3537756,34.809773],[135.353424,34.8096829],[135.3530478,34.8096108],[135.3527591,34.8095819],[135.3525553,34.8095684],[135.3523437,34.8095627]]}},{"type":"Feature","properties":{"kind":"rail","name":"JR福知山線"},"geometry":{"type":"LineString","coordinates":[[135.2784179,34.8636796],[135.2786809,34.8636365],[135.2789418,34.8636039],[135.2805528,34.8634464],[135.2820338,34.8632961],[135.2841892,34.8630904],[135.2873024,34.8627877],[135.2895656,34.8625781],[135.2912898,34.86243],[135.2917152,34.8623906],[135.2920245,34.8623714]]}},{"type":"Feature","properties":{"kind":"rail","name":"JR福知山線"},"geometry":{"type":"LineString","coordinates":[[135.2937918,34.8621965],[135.294228,34.8621355],[135.2951242,34.8619698],[135.2954923,34.8618969],[135.295859,34.8617808],[135.2962056,34.8616746],[135.2969063,34.8614584],[135.2976101,34.8612449],[135.2983069,34.8610323],[135.2990293,34.8608193],[135.2997528,34.8605938],[135.3004177,34.8603247],[135.3007536,34.860182],[135.3008918,34.8601207]]}},{"type":"Feature","properties":{"kind":"rail","name":"JR福知山線"},"geometry":{"type":"LineString","coordinates":[[135.3058474,34.8552863],[135.3058755,34.8552504]]}},{"type":"Feature","properties":{"kind":"rail","name":"JR福知山線"},"geometry":{"type":"LineString","coordinates":[[135.3065061,34.8545246],[135.306621,34.8543933],[135.3069266,34.8540035],[135.307101,34.8537466],[135.3074479,34.8531955],[135.3077062,34.8526207],[135.3079078,34.8520277],[135.3081088,34.8508279],[135.308223,34.8486802],[135.3082543,34.847466],[135.3082927,34.8465765],[135.3083188,34.845624],[135.3083762,34.8441343],[135.308454,34.8422967],[135.3084854,34.8413029],[135.3085008,34.840624],[135.3085318,34.840109],[135.3085323,34.8393873],[135.3085488,34.8389337],[135.3085717,34.83859],[135.3085855,34.8379687],[135.3086219,34.8365538],[135.3086375,34.8358202],[135.308695,34.833563],[135.308768,34.831818],[135.308775,34.831305],[135.3088601,34.8293924],[135.3089095,34.828406],[135.3089158,34.8280163]]}},{"type":"Feature","properties":{"kind":"rail","name":"JR福知山線"},"geometry":{"type":"LineString","coordinates":[[135.3064489,34.8545892],[135.3065061,34.8545246]]}},{"type":"Feature","properties":{"kind":"rail","name":"JR福知山線"},"geometry":{"type":"LineString","coordinates":[[135.2920245,34.8623714],[135.2922749,34.8623485]]}},{"type":"Feature","properties":{"kind":"rail","name":"JR福知山線"},"geometry":{"type":"LineString","coordinates":[[135.2935411,34.8622261],[135.2937918,34.8621965]]}},{"type":"Feature","properties":{"kind":"rail","name":"JR福知山線"},"geometry":{"type":"LineString","coordinates":[[135.3052452,34.8560275],[135.3054674,34.8557522],[135.3057144,34.8554502],[135.3058474,34.8552863]]}},{"type":"Feature","properties":{"kind":"rail","name":"JR福知山線"},"geometry":{"type":"LineString","coordinates":[[135.2922749,34.8623485],[135.2935411,34.8622261]]}},{"type":"Feature","properties":{"kind":"rail","name":"JR福知山線"},"geometry":{"type":"LineString","coordinates":[[135.3008918,34.8601207],[135.3011216,34.8599937],[135.3014714,34.8597914],[135.3017584,34.8596177],[135.3020898,34.859386]]}},{"type":"Feature","properties":{"kind":"rail","name":"JR福知山線"},"geometry":{"type":"LineString","coordinates":[[135.3249828,34.8192699],[135.325224,34.8193754],[135.3261015,34.8197525],[135.3266858,34.820008],[135.327018,34.820144],[135.3273723,34.8202579],[135.3275247,34.8202987],[135.3277348,34.820345],[135.3280803,34.8204048],[135.328474,34.820448],[135.3288696,34.8204532],[135.3292519,34.820436],[135.3294533,34.8204157],[135.3296239,34.820394],[135.3300624,34.8203288],[135.3305344,34.820243],[135.3309508,34.8201748],[135.3310765,34.8201512],[135.3312503,34.8201103]]}},{"type":"Feature","properties":{"kind":"rail","name":"JR福知山線"},"geometry":{"type":"LineString","coordinates":[[135.3196655,34.8173377],[135.3199493,34.817376],[135.3202531,34.8174279],[135.3205191,34.8174834]]}},{"type":"Feature","properties":{"kind":"rail","name":"JR福知山線"},"geometry":{"type":"LineString","coordinates":[[135.3174704,34.8173983],[135.3178075,34.8173474],[135.318158,34.8173142],[135.3185432,34.8172899],[135.3189025,34.8172899],[135.3191368,34.8172916]]}},{"type":"Feature","properties":{"kind":"rail","name":"JR福知山線"},"geometry":{"type":"LineString","coordinates":[[135.4259807,34.7405334],[135.4258511,34.7403907],[135.4250177,34.7395121]]}},{"type":"Feature","properties":{"kind":"rail","name":"JR福知山線"},"geometry":{"type":"LineString","coordinates":[[135.4249825,34.7395363],[135.4259289,34.7405351]]}},{"type":"Feature","properties":{"kind":"rail","name":"JR福知山線"},"geometry":{"type":"LineString","coordinates":[[135.3638152,34.8147343],[135.3633163,34.8145561],[135.3627098,34.8143295],[135.3625087,34.8142502],[135.3621683,34.8141069],[135.3619081,34.8139946],[135.3617123,34.8138977],[135.3613287,34.8137017],[135.3609854,34.8135189],[135.3607963,34.8134267],[135.3606606,34.8133606],[135.3605891,34.8133235],[135.3599018,34.8129662],[135.3596628,34.8128409],[135.3593037,34.8126513],[135.3580072,34.8119647]]}},{"type":"Feature","properties":{"kind":"rail","name":"JR福知山線"},"geometry":{"type":"LineString","coordinates":[[135.4250177,34.7395121],[135.424228,34.738684],[135.423261,34.737653],[135.4230559,34.7374155],[135.4229699,34.7373228],[135.4228159,34.7371567]]}},{"type":"Feature","properties":{"kind":"rail","name":"JR福知山線"},"geometry":{"type":"LineString","coordinates":[[135.4228159,34.7371567],[135.4225562,34.7368754],[135.4224186,34.7367267],[135.4223073,34.7365794],[135.4221628,34.7363551],[135.4220383,34.7361112],[135.4219425,34.7358603]]}},{"type":"Feature","properties":{"kind":"rail","name":"JR福知山線"},"geometry":{"type":"LineString","coordinates":[[135.4253018,34.7498624],[135.4254093,34.7492627],[135.4255011,34.7486929],[135.4255171,34.7485931],[135.4255795,34.7482183],[135.4256297,34.7479167],[135.4258129,34.746857],[135.4258515,34.7466433],[135.4259557,34.7460668],[135.4266054,34.7425488],[135.4266193,34.742443],[135.4266345,34.742211],[135.4266211,34.7419509],[135.4265958,34.7417619],[135.4265587,34.7415961]]}},{"type":"Feature","properties":{"kind":"rail","name":"JR福知山線"},"geometry":{"type":"LineString","coordinates":[[135.4265203,34.7416156],[135.4265566,34.74178],[135.4265842,34.7419906],[135.4265883,34.7421938],[135.4265881,34.7423429],[135.4265613,34.7425715],[135.426532,34.7427324],[135.4265097,34.7428682],[135.4263502,34.7437229],[135.4262822,34.7441083],[135.4262107,34.7444947],[135.4261159,34.7449915],[135.4260234,34.745484],[135.4259133,34.7460559],[135.4258777,34.7462444],[135.4257299,34.7470297],[135.4256033,34.7477051],[135.4255071,34.7482335],[135.4254966,34.7482909],[135.4254509,34.7485414],[135.4253594,34.748974],[135.4252797,34.749315],[135.4252034,34.7496513],[135.425192,34.7497143]]}},{"type":"Feature","properties":{"kind":"rail","name":"JR福知山線"},"geometry":{"type":"LineString","coordinates":[[135.4249558,34.7509902],[135.4248458,34.7516321],[135.4248194,34.7518163]]}},{"type":"Feature","properties":{"kind":"rail","name":"JR福知山線"},"geometry":{"type":"LineString","coordinates":[[135.4249331,34.7518339],[135.424952,34.7517417],[135.4250886,34.7509979]]}},{"type":"Feature","properties":{"kind":"rail","name":"JR福知山線"},"geometry":{"type":"LineString","coordinates":[[135.4255071,34.7482335],[135.4254731,34.7485539],[135.4254216,34.7488709],[135.4253301,34.7493006],[135.4252644,34.749581],[135.4252046,34.7498551]]}},{"type":"Feature","properties":{"kind":"rail","name":"JR福知山線"},"geometry":{"type":"LineString","coordinates":[[135.4246394,34.7529376],[135.4247063,34.7526775],[135.4247553,34.7524512],[135.4248036,34.752189],[135.4248239,34.7520688],[135.4248317,34.7520223],[135.4248583,34.751821]]}},{"type":"Feature","properties":{"kind":"rail","name":"JR福知山線"},"geometry":{"type":"LineString","coordinates":[[135.4148625,34.8157182],[135.4148844,34.814919]]}},{"type":"Feature","properties":{"kind":"rail","name":"JR福知山線"},"geometry":{"type":"LineString","coordinates":[[135.4145252,34.8211361],[135.4145898,34.8209609],[135.4146656,34.8207174],[135.4147209,34.8204322],[135.414752,34.8200819],[135.4147828,34.819185],[135.4147862,34.8190861],[135.4147971,34.8187679],[135.4148215,34.8175334],[135.4148625,34.8157182]]}},{"type":"Feature","properties":{"kind":"rail","name":"JR福知山線"},"geometry":{"type":"LineString","coordinates":[[135.4148184,34.8157676],[135.414754,34.8183738],[135.4147357,34.8190841],[135.4147151,34.8198843],[135.4147057,34.820175],[135.4146695,34.8204535],[135.4146065,34.8207585],[135.4145273,34.8210172],[135.4144013,34.8213244],[135.4142645,34.8215886]]}},{"type":"Feature","properties":{"kind":"rail","name":"JR福知山線"},"geometry":{"type":"LineString","coordinates":[[135.4148439,34.8149386],[135.4148184,34.8157676]]}},{"type":"Feature","properties":{"kind":"rail","name":"JR福知山線"},"geometry":{"type":"LineString","coordinates":[[135.3761241,34.8165213],[135.3766146,34.8164788],[135.3771099,34.8164394],[135.3776508,34.8163834],[135.3785055,34.8162905],[135.3788934,34.8162599],[135.3799303,34.8161636],[135.3806174,34.8161007],[135.3810841,34.8160932],[135.3817192,34.8161337],[135.381986,34.816173],[135.3821625,34.8162043],[135.382502,34.8162738],[135.3827676,34.8163484],[135.3836137,34.8166122],[135.3846913,34.8169533],[135.3850636,34.8170725],[135.3853477,34.8171649],[135.3857211,34.8172818],[135.3862093,34.8174287],[135.3867527,34.8175974],[135.3871437,34.8177207],[135.3873862,34.8178069],[135.3876837,34.8179106],[135.3879668,34.8180162],[135.3880551,34.8180526],[135.3882574,34.8181426],[135.3885351,34.8182635],[135.3888514,34.8184285],[135.3894053,34.8187777],[135.3898493,34.8190701],[135.3905303,34.8195205]]}},{"type":"Feature","properties":{"kind":"rail","name":"JR福知山線"},"geometry":{"type":"LineString","coordinates":[[135.340257,34.811637],[135.3395481,34.8119549],[135.3392743,34.8121007],[135.3390635,34.8122254],[135.33881,34.8123928],[135.3387504,34.8124364],[135.3386115,34.8125381],[135.3383861,34.8126927]]}},{"type":"Feature","properties":{"kind":"rail","name":"JR福知山線"},"geometry":{"type":"LineString","coordinates":[[135.3420256,34.81088],[135.34225,34.8108203],[135.3424072,34.8107784],[135.3429521,34.8106549]]}},{"type":"Feature","properties":{"kind":"rail","name":"JR福知山線"},"geometry":{"type":"LineString","coordinates":[[135.3523437,34.8095627],[135.3520161,34.8095748],[135.3517584,34.8095971],[135.3514686,34.8096368]]}},{"type":"Feature","properties":{"kind":"rail","name":"JR福知山線"},"geometry":{"type":"LineString","coordinates":[[135.3514686,34.8096368],[135.3513161,34.8096585],[135.350641,34.8097482],[135.3505916,34.8097556],[135.3496397,34.8098655],[135.3480017,34.8100364],[135.3479297,34.8100436],[135.345729,34.8102839],[135.3435119,34.8105253],[135.343064,34.8105882]]}},{"type":"Feature","properties":{"kind":"rail","name":"JR福知山線"},"geometry":{"type":"LineString","coordinates":[[135.322773,34.8183087],[135.3230345,34.8184232]]}},{"type":"Feature","properties":{"kind":"rail","name":"JR福知山線"},"geometry":{"type":"LineString","coordinates":[[135.321788,34.8178944],[135.3223202,34.8181153]]}},{"type":"Feature","properties":{"kind":"rail","name":"JR福知山線"},"geometry":{"type":"LineString","coordinates":[[135.3227851,34.818279],[135.3225512,34.8181779]]}},{"type":"Feature","properties":{"kind":"rail","name":"JR福知山線"},"geometry":{"type":"LineString","coordinates":[[135.323052,34.8183924],[135.3227851,34.818279]]}},{"type":"Feature","properties":{"kind":"rail","name":"JR福知山線"},"geometry":{"type":"LineString","coordinates":[[135.3299638,34.820299],[135.3296281,34.8203565],[135.329449,34.8203819],[135.3292516,34.8203981],[135.3288702,34.8204213],[135.3284813,34.8204091],[135.3280819,34.8203698],[135.3277394,34.8203088],[135.3275547,34.8202681],[135.3273908,34.8202252],[135.3270624,34.8201185],[135.3267181,34.8199838],[135.3261103,34.8197315],[135.3249972,34.819244]]}},{"type":"Feature","properties":{"kind":"rail","name":"JR福知山線"},"geometry":{"type":"LineString","coordinates":[[135.3413325,34.8112849],[135.3414629,34.8112239]]}},{"type":"Feature","properties":{"kind":"rail","name":"JR福知山線"},"geometry":{"type":"LineString","coordinates":[[135.3429521,34.8106549],[135.3434955,34.8105779],[135.3444053,34.8104657],[135.3449098,34.8104075],[135.3455984,34.810333],[135.3470356,34.8101774],[135.3480083,34.8100688],[135.349493,34.8099113],[135.35029,34.8098191],[135.3506472,34.8097834],[135.3514671,34.8096644]]}},{"type":"Feature","properties":{"kind":"rail","name":"JR福知山線"},"geometry":{"type":"LineString","coordinates":[[135.3405944,34.8114883],[135.3414009,34.81113]]}},{"type":"Feature","properties":{"kind":"rail","name":"JR福知山線"},"geometry":{"type":"LineString","coordinates":[[135.3414009,34.81113],[135.3418248,34.8109559],[135.3418869,34.8109333],[135.3418945,34.8109305],[135.3420256,34.81088]]}},{"type":"Feature","properties":{"kind":"rail","name":"JR福知山線"},"geometry":{"type":"LineString","coordinates":[[135.3413816,34.8111008],[135.3405735,34.8114565]]}},{"type":"Feature","properties":{"kind":"rail","name":"JR福知山線"},"geometry":{"type":"LineString","coordinates":[[135.343064,34.8105882],[135.3429111,34.8106134],[135.3423814,34.8107334],[135.3422069,34.8107809],[135.3418599,34.810895],[135.3418552,34.8108969],[135.3413816,34.8111008]]}},{"type":"Feature","properties":{"kind":"rail","name":"JR福知山線"},"geometry":{"type":"LineString","coordinates":[[135.3217993,34.8178518],[135.3214739,34.8177203],[135.3211923,34.8176158],[135.320859,34.817516],[135.3205304,34.8174487]]}},{"type":"Feature","properties":{"kind":"rail","name":"JR福知山線"},"geometry":{"type":"LineString","coordinates":[[135.3205304,34.8174487],[135.3202626,34.8173928],[135.3199552,34.8173404],[135.3196699,34.817302]]}},{"type":"Feature","properties":{"kind":"rail","name":"JR福知山線"},"geometry":{"type":"LineString","coordinates":[[135.3196699,34.817302],[135.3194418,34.8172797],[135.3191407,34.8172578]]}},{"type":"Feature","properties":{"kind":"rail","name":"JR福知山線"},"geometry":{"type":"LineString","coordinates":[[135.3191407,34.8172578],[135.3189031,34.8172495],[135.3185413,34.8172495],[135.3181523,34.817274],[135.3177986,34.8173077],[135.3174602,34.8173588]]}},{"type":"Feature","properties":{"kind":"rail","name":"JR福知山線"},"geometry":{"type":"LineString","coordinates":[[135.3088906,34.8274074],[135.3088762,34.8277847],[135.3088652,34.8280166]]}},{"type":"Feature","properties":{"kind":"rail","name":"JR福知山線"},"geometry":{"type":"LineString","coordinates":[[135.3089127,34.8265816],[135.3089048,34.8269753]]}},{"type":"Feature","properties":{"kind":"rail","name":"JR福知山線"},"geometry":{"type":"LineString","coordinates":[[135.3174602,34.8173588],[135.3172733,34.8173959],[135.3169008,34.8174759],[135.3165439,34.8175747],[135.3161974,34.8176837],[135.3157204,34.8178828],[135.315541,34.8179627],[135.3152219,34.8181237],[135.3148939,34.8182888],[135.3145751,34.8184358],[135.3139175,34.8187636],[135.3136196,34.8189112],[135.3133073,34.8190676],[135.3129561,34.8192467],[135.3125314,34.8194537],[135.3120736,34.819676],[135.3117202,34.8198913],[135.3114367,34.8200777],[135.3108761,34.8205239],[135.3105479,34.8208001],[135.3102764,34.8210937],[135.3100816,34.8213026],[135.3097879,34.8217384],[135.309532,34.8221725],[135.3093386,34.8226305],[135.3092286,34.8229423],[135.3090673,34.823659],[135.3090364,34.8241657],[135.3090201,34.8244472],[135.3090082,34.8247434],[135.3090006,34.8250575],[135.3089833,34.8253478],[135.308965,34.8256751],[135.3089127,34.8265816]]}},{"type":"Feature","properties":{"kind":"rail","name":"JR福知山線"},"geometry":{"type":"LineString","coordinates":[[135.3088652,34.8280166],[135.3088603,34.828405],[135.3088109,34.8293909],[135.3087258,34.8313038],[135.3087187,34.8318171],[135.3086458,34.8335617],[135.3085882,34.8358188],[135.3085727,34.8365515],[135.3085363,34.8379658],[135.3085225,34.8385872],[135.3084996,34.8389307],[135.3084831,34.8393845],[135.3084826,34.8401069],[135.3084517,34.8406209],[135.3084363,34.8412995],[135.3084049,34.8422938],[135.3083271,34.8441312],[135.3082696,34.8456212],[135.3082435,34.8465736],[135.3082052,34.8474627],[135.3081739,34.8486771],[135.3080597,34.8508249],[135.3078587,34.8520244],[135.3076573,34.8526156],[135.3073997,34.8531871],[135.3070537,34.8537354],[135.306879,34.8539928],[135.3065752,34.8543764],[135.3064661,34.8545009]]}},{"type":"Feature","properties":{"kind":"rail","name":"JR福知山線"},"geometry":{"type":"LineString","coordinates":[[135.3064661,34.8545009],[135.3064091,34.8545655]]}},{"type":"Feature","properties":{"kind":"rail","name":"JR福知山線"},"geometry":{"type":"LineString","coordinates":[[135.3064091,34.8545655],[135.3058488,34.8552314]]}},{"type":"Feature","properties":{"kind":"rail","name":"JR福知山線"},"geometry":{"type":"LineString","coordinates":[[135.3058488,34.8552314],[135.3058181,34.8552688]]}},{"type":"Feature","properties":{"kind":"rail","name":"JR福知山線"},"geometry":{"type":"LineString","coordinates":[[135.3058181,34.8552688],[135.3056825,34.855435],[135.3054317,34.8557346],[135.3052058,34.8560132]]}},{"type":"Feature","properties":{"kind":"rail","name":"JR福知山線"},"geometry":{"type":"LineString","coordinates":[[135.3052058,34.8560132],[135.3048586,34.8564157],[135.3044379,34.8569255],[135.3038041,34.8576898],[135.3032744,34.8583101],[135.3028301,34.8587364],[135.3023898,34.8591151],[135.3020482,34.8593692]]}},{"type":"Feature","properties":{"kind":"rail","name":"JR福知山線"},"geometry":{"type":"LineString","coordinates":[[135.3020482,34.8593692],[135.3017267,34.859584],[135.3014443,34.8597662],[135.3010903,34.8599576],[135.3008702,34.8600855]]}},{"type":"Feature","properties":{"kind":"rail","name":"JR福知山線"},"geometry":{"type":"LineString","coordinates":[[135.2937761,34.8621619],[135.2935399,34.8621862]]}},{"type":"Feature","properties":{"kind":"rail","name":"JR福知山線"},"geometry":{"type":"LineString","coordinates":[[135.3008702,34.8600855],[135.3007372,34.860145],[135.3003862,34.8603019],[135.2997016,34.8605717],[135.2990087,34.8607858],[135.2982974,34.8609989],[135.2976071,34.861209],[135.2968854,34.8614289],[135.2961838,34.8616399],[135.2958508,34.8617522],[135.2954923,34.8618551],[135.2951111,34.8619457],[135.29422,34.8621068],[135.2937761,34.8621619]]}},{"type":"Feature","properties":{"kind":"rail","name":"JR福知山線"},"geometry":{"type":"LineString","coordinates":[[135.2935399,34.8621862],[135.2922672,34.8623013]]}},{"type":"Feature","properties":{"kind":"rail","name":"JR福知山線"},"geometry":{"type":"LineString","coordinates":[[135.2922672,34.8623013],[135.2919982,34.8623337]]}},{"type":"Feature","properties":{"kind":"rail","name":"JR福知山線"},"geometry":{"type":"LineString","coordinates":[[135.2919982,34.8623337],[135.2917119,34.8623486],[135.2912902,34.8623835],[135.2895606,34.8625382],[135.2872892,34.8627369],[135.2841732,34.8630418],[135.281995,34.8632563],[135.2805434,34.8634],[135.278932,34.8635597],[135.2786687,34.8635963],[135.2784054,34.8636434]]}},{"type":"Feature","properties":{"kind":"rail","name":"JR福知山線"},"geometry":{"type":"LineString","coordinates":[[135.343064,34.8105882],[135.3425229,34.8107229],[135.3423566,34.8107742],[135.3420256,34.81088]]}},{"type":"Feature","properties":{"kind":"rail","name":"JR福知山線"},"geometry":{"type":"LineString","coordinates":[[135.3383861,34.8126927],[135.3382026,34.8128361],[135.3379019,34.8130953],[135.3376196,34.8133489]]}},{"type":"Feature","properties":{"kind":"rail","name":"JR福知山線"},"geometry":{"type":"LineString","coordinates":[[135.3223382,34.8180836],[135.3217993,34.8178518]]}},{"type":"Feature","properties":{"kind":"rail","name":"JR福知山線"},"geometry":{"type":"LineString","coordinates":[[135.3225512,34.8181779],[135.3223382,34.8180836]]}},{"type":"Feature","properties":{"kind":"rail","name":"JR福知山線"},"geometry":{"type":"LineString","coordinates":[[135.3225343,34.8182041],[135.322773,34.8183087]]}},{"type":"Feature","properties":{"kind":"rail","name":"JR福知山線"},"geometry":{"type":"LineString","coordinates":[[135.3223202,34.8181153],[135.3225343,34.8182041]]}},{"type":"Feature","properties":{"kind":"rail","name":"JR福知山線"},"geometry":{"type":"LineString","coordinates":[[135.3706253,34.8168704],[135.3711167,34.8168615],[135.3714267,34.8168434],[135.3719705,34.8168133],[135.372265,34.8167979],[135.3731818,34.8167324]]}},{"type":"Feature","properties":{"kind":"rail","name":"JR福知山線"},"geometry":{"type":"LineString","coordinates":[[135.3684462,34.816424],[135.368852,34.8165658],[135.3692368,34.8166841],[135.3696333,34.8167788],[135.3700408,34.8168302],[135.3702969,34.8168543],[135.3704358,34.8168634],[135.3706253,34.8168704]]}},{"type":"Feature","properties":{"kind":"rail","name":"JR福知山線"},"geometry":{"type":"LineString","coordinates":[[135.3705988,34.8168311],[135.3702968,34.8168176],[135.3700449,34.8167961],[135.3696409,34.8167455],[135.3692567,34.8166547],[135.3688671,34.8165358],[135.3684648,34.8163938]]}},{"type":"Feature","properties":{"kind":"rail","name":"JR福知山線"},"geometry":{"type":"LineString","coordinates":[[135.3738718,34.8166495],[135.3735567,34.8166725],[135.3729907,34.8167144],[135.3726423,34.816734],[135.3722652,34.8167585],[135.3718159,34.8167892],[135.3713683,34.8168242],[135.3705988,34.8168311]]}},{"type":"Feature","properties":{"kind":"rail","name":"JR福知山線"},"geometry":{"type":"LineString","coordinates":[[135.3089396,34.8272334],[135.3089472,34.8269744]]}},{"type":"Feature","properties":{"kind":"rail","name":"JR福知山線"},"geometry":{"type":"LineString","coordinates":[[135.3089372,34.8272987],[135.3089396,34.8272334]]}},{"type":"Feature","properties":{"kind":"rail","name":"JR福知山線"},"geometry":{"type":"LineString","coordinates":[[135.3089048,34.8269753],[135.3088982,34.827213]]}},{"type":"Feature","properties":{"kind":"rail","name":"JR福知山線"},"geometry":{"type":"LineString","coordinates":[[135.3088982,34.827213],[135.3088958,34.8272812]]}},{"type":"Feature","properties":{"kind":"rail","name":"JR福知山線"},"geometry":{"type":"LineString","coordinates":[[135.3089359,34.8273582],[135.3089372,34.8272987]]}},{"type":"Feature","properties":{"kind":"rail","name":"JR福知山線"},"geometry":{"type":"LineString","coordinates":[[135.3089346,34.8274234],[135.3089359,34.8273582]]}},{"type":"Feature","properties":{"kind":"rail","name":"JR福知山線"},"geometry":{"type":"LineString","coordinates":[[135.3088933,34.8273424],[135.3088906,34.8274074]]}},{"type":"Feature","properties":{"kind":"rail","name":"JR福知山線"},"geometry":{"type":"LineString","coordinates":[[135.3088958,34.8272812],[135.3088933,34.8273424]]}},{"type":"Feature","properties":{"kind":"rail","name":"JR福知山線"},"geometry":{"type":"LineString","coordinates":[[135.4218137,34.7766269],[135.4218129,34.7765959]]}},{"type":"Feature","properties":{"kind":"rail","name":"JR福知山線"},"geometry":{"type":"LineString","coordinates":[[135.4218372,34.7775217],[135.4218137,34.7766269]]}},{"type":"Feature","properties":{"kind":"rail","name":"JR福知山線"},"geometry":{"type":"LineString","coordinates":[[135.4217679,34.7766286],[135.4217916,34.7774905]]}},{"type":"Feature","properties":{"kind":"rail","name":"JR福知山線"},"geometry":{"type":"LineString","coordinates":[[135.421767,34.7765966],[135.4217679,34.7766286]]}},{"type":"Feature","properties":{"kind":"rail","name":"JR福知山線"},"geometry":{"type":"LineString","coordinates":[[135.4218382,34.7775908],[135.4218372,34.7775217]]}},{"type":"Feature","properties":{"kind":"rail","name":"JR福知山線"},"geometry":{"type":"LineString","coordinates":[[135.4217616,34.7803382],[135.421785,34.7798021],[135.4218142,34.7791853],[135.4218277,34.7789297],[135.4218355,34.7786733],[135.4218448,34.7783508],[135.4218441,34.7780501],[135.4218394,34.7778821],[135.4218391,34.7777489],[135.4218382,34.7775908]]}},{"type":"Feature","properties":{"kind":"rail","name":"JR福知山線"},"geometry":{"type":"LineString","coordinates":[[135.4217916,34.7774905],[135.4217929,34.7775484]]}},{"type":"Feature","properties":{"kind":"rail","name":"JR福知山線"},"geometry":{"type":"LineString","coordinates":[[135.4225526,34.7641172],[135.4224295,34.7647978],[135.4222203,34.7659149],[135.4221768,34.7661788],[135.4221692,34.7662161],[135.4221615,34.7662464],[135.4219437,34.7674112],[135.4218546,34.7678956],[135.4217031,34.7687163],[135.4216839,34.7688375],[135.421649,34.7691097],[135.4215936,34.7697449],[135.4215787,34.7700088],[135.4215743,34.7704207],[135.4215944,34.7713049],[135.4216117,34.7718675],[135.4216367,34.7730156],[135.4216811,34.7742037],[135.4217053,34.7752656],[135.421764,34.7764864],[135.421767,34.7765966]]}},{"type":"Feature","properties":{"kind":"rail","name":"JR福知山線"},"geometry":{"type":"LineString","coordinates":[[135.3675512,34.8160647],[135.3672423,34.8159528]]}},{"type":"Feature","properties":{"kind":"rail","name":"JR福知山線"},"geometry":{"type":"LineString","coordinates":[[135.3684648,34.8163938],[135.3683857,34.8163671],[135.3675512,34.8160647]]}},{"type":"Feature","properties":{"kind":"rail","name":"JR福知山線"},"geometry":{"type":"LineString","coordinates":[[135.367546,34.8160977],[135.3678216,34.8161963],[135.3683649,34.8163958],[135.3684462,34.816424]]}},{"type":"Feature","properties":{"kind":"rail","name":"JR福知山線"},"geometry":{"type":"LineString","coordinates":[[135.3672192,34.8159836],[135.367546,34.8160977]]}},{"type":"Feature","properties":{"kind":"rail","name":"JR福知山線"},"geometry":{"type":"LineString","coordinates":[[135.3639102,34.8148022],[135.3640774,34.8148637],[135.3646627,34.815072],[135.3672192,34.8159836]]}},{"type":"Feature","properties":{"kind":"rail","name":"JR福知山線"},"geometry":{"type":"LineString","coordinates":[[135.3637987,34.8147612],[135.3639102,34.8148022]]}},{"type":"Feature","properties":{"kind":"rail","name":"JR福知山線"},"geometry":{"type":"LineString","coordinates":[[135.3639228,34.8147727],[135.3638152,34.8147343]]}},{"type":"Feature","properties":{"kind":"rail","name":"JR福知山線"},"geometry":{"type":"LineString","coordinates":[[135.3672423,34.8159528],[135.3656817,34.8154063],[135.3642789,34.8148999],[135.3639228,34.8147727]]}},{"type":"Feature","properties":{"kind":"rail","name":"JR福知山線"},"geometry":{"type":"LineString","coordinates":[[135.4240551,34.75631],[135.4241511,34.7557871],[135.4242924,34.7550114],[135.424429,34.7542777],[135.4244814,34.7539796],[135.424558,34.7535641],[135.4246264,34.7532226],[135.4247619,34.7526023],[135.4248063,34.7524499],[135.4249331,34.7518339]]}},{"type":"Feature","properties":{"kind":"rail","name":"JR福知山線"},"geometry":{"type":"LineString","coordinates":[[135.424047,34.7563502],[135.4240551,34.75631]]}},{"type":"Feature","properties":{"kind":"rail","name":"JR福知山線"},"geometry":{"type":"LineString","coordinates":[[135.4240102,34.756311],[135.4240033,34.7563501]]}},{"type":"Feature","properties":{"kind":"rail","name":"JR福知山線"},"geometry":{"type":"LineString","coordinates":[[135.4248194,34.7518163],[135.424786,34.7520493],[135.424745,34.752295],[135.4247233,34.752452],[135.4246394,34.7529376],[135.4245333,34.7534999],[135.4243879,34.7542726],[135.4242576,34.7550083],[135.4242185,34.75522],[135.4240102,34.756311]]}},{"type":"Feature","properties":{"kind":"rail","name":"JR福知山線"},"geometry":{"type":"LineString","coordinates":[[135.3249972,34.819244],[135.3239183,34.8187811],[135.323052,34.8183924]]}},{"type":"Feature","properties":{"kind":"rail","name":"JR福知山線"},"geometry":{"type":"LineString","coordinates":[[135.3405735,34.8114565],[135.3402322,34.8116089]]}},{"type":"Feature","properties":{"kind":"rail","name":"JR福知山線"},"geometry":{"type":"LineString","coordinates":[[135.3761207,34.8164851],[135.3759842,34.8164962],[135.3751918,34.8165578],[135.3747519,34.8165864],[135.3738718,34.8166495]]}},{"type":"Feature","properties":{"kind":"rail","name":"JR福知山線"},"geometry":{"type":"LineString","coordinates":[[135.4104276,34.8247312],[135.4083556,34.8253461],[135.4081021,34.8254188],[135.4077934,34.8254908],[135.4075809,34.8255296],[135.4071299,34.8255837],[135.4066373,34.8256044],[135.4061281,34.8255794],[135.4057177,34.8255166],[135.4052429,34.8254054],[135.4050632,34.8253625],[135.4049213,34.8253237]]}},{"type":"Feature","properties":{"kind":"rail","name":"JR福知山線"},"geometry":{"type":"LineString","coordinates":[[135.4119511,34.8241087],[135.4117448,34.8241977],[135.4116118,34.8242551],[135.4114307,34.8243256],[135.4112188,34.8243993],[135.4107441,34.8245424],[135.4104041,34.8246448]]}},{"type":"Feature","properties":{"kind":"rail","name":"JR福知山線"},"geometry":{"type":"LineString","coordinates":[[135.4142645,34.8215886],[135.4141296,34.8217941],[135.4135912,34.8226918],[135.4133445,34.8230353],[135.413205,34.8231916],[135.4130722,34.8233281],[135.4129234,34.8234657],[135.4127383,34.8236044],[135.4125291,34.8237641],[135.4123226,34.8238984],[135.4121066,34.8240272],[135.4119511,34.8241087]]}},{"type":"Feature","properties":{"kind":"rail","name":"JR福知山線"},"geometry":{"type":"LineString","coordinates":[[135.4192916,34.8012541],[135.4192661,34.8014156],[135.419238,34.8016208],[135.4192098,34.8018717],[135.4191939,34.8020113],[135.41918,34.8021639],[135.4191685,34.8022826],[135.4191534,34.8024193],[135.419118,34.8026477],[135.4190965,34.8028079],[135.4190841,34.8029029],[135.4190435,34.8031311],[135.4190207,34.8032666],[135.4189966,34.8033814],[135.4189319,34.8037221],[135.4186567,34.8051881],[135.4186329,34.8052875],[135.4186164,34.8053566],[135.4185561,34.8055922],[135.4185108,34.8057637]]}},{"type":"Feature","properties":{"kind":"rail","name":"JR福知山線"},"geometry":{"type":"LineString","coordinates":[[135.4217929,34.7775484],[135.4217959,34.7777505],[135.4217971,34.7778865],[135.4218008,34.7780504],[135.4218016,34.7783502],[135.4217948,34.7786708],[135.4217847,34.7789313],[135.421769,34.7791871],[135.4217399,34.7798042],[135.4217184,34.7803363]]}},{"type":"Feature","properties":{"kind":"rail","name":"JR福知山線"},"geometry":{"type":"LineString","coordinates":[[135.4240033,34.7563501],[135.4236362,34.7583148],[135.4235935,34.7585728],[135.4233546,34.7598599],[135.4233507,34.7598801],[135.4232019,34.7606464],[135.422887,34.7623439],[135.4226293,34.7636718],[135.4225526,34.7641172]]}},{"type":"Feature","properties":{"kind":"rail","name":"JR福知山線"},"geometry":{"type":"LineString","coordinates":[[135.425192,34.7497143],[135.4249558,34.7509902]]}},{"type":"Feature","properties":{"kind":"rail","name":"JR福知山線"},"geometry":{"type":"LineString","coordinates":[[135.4250886,34.7509979],[135.4251912,34.7504795],[135.4253018,34.7498624]]}},{"type":"Feature","properties":{"kind":"rail","name":"JR福知山線"},"geometry":{"type":"LineString","coordinates":[[135.4224611,34.7648475],[135.4225999,34.7641227]]}},{"type":"Feature","properties":{"kind":"rail","name":"JR福知山線"},"geometry":{"type":"LineString","coordinates":[[135.4193096,34.801878],[135.4193533,34.8016225],[135.4193852,34.8014304],[135.4194131,34.8012649]]}},{"type":"Feature","properties":{"kind":"rail","name":"JR福知山線"},"geometry":{"type":"LineString","coordinates":[[135.4104846,34.824849],[135.410654,34.8247963],[135.4109385,34.8246933],[135.4111477,34.8245997],[135.4113905,34.8244819],[135.4116399,34.8243377],[135.4117855,34.8242564],[135.4118666,34.8242111],[135.4119962,34.8241221]]}},{"type":"Feature","properties":{"kind":"rail","name":"JR福知山線"},"geometry":{"type":"LineString","coordinates":[[135.4104437,34.8247663],[135.4110716,34.8245487],[135.4116205,34.8243205],[135.4117741,34.8242393],[135.4119962,34.8241221]]}},{"type":"Feature","properties":{"kind":"rail","name":"JR福知山線"},"geometry":{"type":"LineString","coordinates":[[135.404989,34.825388],[135.4053767,34.8254828],[135.4058934,34.8255852],[135.4062722,34.8256303],[135.406833,34.825647],[135.407168,34.825625],[135.407386,34.825597],[135.4076643,34.8255521],[135.4077671,34.8255324],[135.4080182,34.8254755],[135.4083668,34.8253775],[135.4092245,34.8251269]]}},{"type":"Feature","properties":{"kind":"rail","name":"JR福知山線"},"geometry":{"type":"LineString","coordinates":[[135.3414629,34.8112239],[135.3419366,34.8110125],[135.3419507,34.8110062],[135.3422087,34.8108915],[135.342533,34.8107746],[135.3429521,34.8106549]]}},{"type":"Feature","properties":{"kind":"rail","name":"JR福知山線"},"geometry":{"type":"LineString","coordinates":[[135.3403173,34.8117146],[135.3413325,34.8112849]]}},{"type":"Feature","properties":{"kind":"rail","name":"JR福知山線"},"geometry":{"type":"LineString","coordinates":[[135.3354875,34.8162847],[135.3363375,34.8151309],[135.3364954,34.814915],[135.3366638,34.8146848],[135.3371573,34.8140229],[135.3373941,34.813733],[135.3376898,34.8134161],[135.3378085,34.8132947]]}},{"type":"Feature","properties":{"kind":"rail","name":"JR福知山線"},"geometry":{"type":"LineString","coordinates":[[135.3230345,34.8184232],[135.3239036,34.818805],[135.3249828,34.8192699]]}},{"type":"Feature","properties":{"kind":"rail","name":"JR福知山線"},"geometry":{"type":"LineString","coordinates":[[135.4119511,34.8241087],[135.4117537,34.8242086],[135.4116922,34.8242397],[135.4114978,34.8243256],[135.4112752,34.824429],[135.4109587,34.8245567],[135.4106408,34.8246635],[135.4104276,34.8247312]]}},{"type":"Feature","properties":{"kind":"rail","name":"JR福知山線"},"geometry":{"type":"LineString","coordinates":[[135.340257,34.811637],[135.3405944,34.8114883]]}},{"type":"Feature","properties":{"kind":"expressway","name":"中国自動車道"},"geometry":{"type":"LineString","coordinates":[[135.363395,34.8103301],[135.362286,34.8112227],[135.3587248,34.8140963],[135.3579839,34.8146657]]}},{"type":"Feature","properties":{"kind":"expressway","name":"中国自動車道"},"geometry":{"type":"LineString","coordinates":[[135.3634897,34.8104338],[135.3645701,34.8095626],[135.3651148,34.8091134],[135.3657315,34.8086358],[135.3661874,34.8082827],[135.3667117,34.8079143],[135.3673086,34.8075136]]}},{"type":"Feature","properties":{"kind":"expressway","name":"中国自動車道"},"geometry":{"type":"LineString","coordinates":[[135.3421667,34.8186202],[135.3429489,34.8185027],[135.3437523,34.8183963],[135.3444734,34.818321],[135.3452873,34.8182508],[135.3468926,34.8181558],[135.3476129,34.8181173],[135.3482808,34.8180814],[135.3489645,34.8180428],[135.3496234,34.8179912],[135.3502373,34.8179289],[135.3508389,34.817854]]}},{"type":"Feature","properties":{"kind":"expressway","name":"中国自動車道"},"geometry":{"type":"LineString","coordinates":[[135.3519543,34.817682],[135.3524567,34.817594],[135.3529465,34.8174884],[135.3534632,34.8173435],[135.3539592,34.8171732],[135.3544058,34.8170046],[135.3548692,34.8168155],[135.3553322,34.816603],[135.3556794,34.8164137]]}},{"type":"Feature","properties":{"kind":"expressway","name":"中国自動車道"},"geometry":{"type":"LineString","coordinates":[[135.3554976,34.8161557],[135.354998,34.8164024],[135.3545076,34.8166072],[135.3539738,34.8168085],[135.35349,34.8169585],[135.3528893,34.8171186],[135.3523442,34.8172448],[135.3517334,34.817371]]}},{"type":"Feature","properties":{"kind":"expressway","name":"中国自動車道"},"geometry":{"type":"LineString","coordinates":[[135.3352688,34.8207368],[135.3360469,34.8203877],[135.3366637,34.8201347],[135.337287,34.8198911],[135.3379386,34.8196499],[135.3385963,34.8194391]]}},{"type":"Feature","properties":{"kind":"expressway","name":"中国自動車道"},"geometry":{"type":"LineString","coordinates":[[135.3556794,34.8164137],[135.3561234,34.8161726],[135.3565322,34.8159202],[135.3569368,34.8156498],[135.3573969,34.8153288],[135.3581307,34.8147761]]}},{"type":"Feature","properties":{"kind":"expressway","name":"中国自動車道"},"geometry":{"type":"LineString","coordinates":[[135.3725668,34.8053936],[135.3719982,34.8054827],[135.3715019,34.805579],[135.3710041,34.8056901],[135.3705615,34.8058181],[135.3701156,34.8059652],[135.3696098,34.8061571],[135.3691157,34.8063738]]}},{"type":"Feature","properties":{"kind":"expressway","name":"中国自動車道"},"geometry":{"type":"LineString","coordinates":[[135.3691536,34.8065073],[135.3696988,34.8062643],[135.3701637,34.8060843],[135.3706063,34.8059328],[135.3710449,34.805807],[135.3715367,34.8056941],[135.3720285,34.8056014],[135.3724738,34.8055322]]}},{"type":"Feature","properties":{"kind":"expressway","name":"中国自動車道"},"geometry":{"type":"LineString","coordinates":[[135.3410728,34.8185888],[135.3403172,34.8187317],[135.3396808,34.8188616],[135.3389684,34.8190277],[135.3383093,34.8192043],[135.3375858,34.8194134]]}},{"type":"Feature","properties":{"kind":"expressway","name":"中国自動車道"},"geometry":{"type":"LineString","coordinates":[[135.3385963,34.8194391],[135.3390787,34.8193035],[135.3397576,34.819124],[135.3403826,34.8189756],[135.3410619,34.8188286]]}},{"type":"Feature","properties":{"kind":"expressway","name":"中国自動車道"},"geometry":{"type":"LineString","coordinates":[[135.3687467,34.80655],[135.3683446,34.8067552],[135.3677298,34.8070989],[135.3672093,34.8074232]]}},{"type":"Feature","properties":{"kind":"expressway","name":"中国自動車道"},"geometry":{"type":"LineString","coordinates":[[135.3335028,34.8211547],[135.3330768,34.8213564],[135.3326793,34.8215218],[135.3322986,34.8216715],[135.3319211,34.8218031]]}},{"type":"Feature","properties":{"kind":"expressway","name":"中国自動車道"},"geometry":{"type":"LineString","coordinates":[[135.3517334,34.817371],[135.3512026,34.8174734],[135.3506336,34.8175803],[135.3501417,34.8176568]]}},{"type":"Feature","properties":{"kind":"expressway","name":"中国自動車道"},"geometry":{"type":"LineString","coordinates":[[135.3421483,34.8184147],[135.341639,34.8184914],[135.3410728,34.8185888]]}},{"type":"Feature","properties":{"kind":"expressway","name":"中国自動車道"},"geometry":{"type":"LineString","coordinates":[[135.3964944,34.8106941],[135.3959156,34.8106502],[135.3950122,34.8105772],[135.3940773,34.8104917],[135.3931542,34.8104073],[135.3922338,34.8103139],[135.3913089,34.8102123],[135.3903862,34.8101085],[135.3894909,34.8099877],[135.3885665,34.8098498]]}},{"type":"Feature","properties":{"kind":"expressway","name":"中国自動車道"},"geometry":{"type":"LineString","coordinates":[[135.3294909,34.8225306],[135.3299324,34.8225007],[135.3303117,34.82246],[135.3306953,34.8224069],[135.3311296,34.8223383],[135.3315407,34.8222532],[135.3319416,34.822145],[135.3323301,34.8220305],[135.3327028,34.8218953],[135.3330933,34.8217438],[135.3335851,34.8215378]]}},{"type":"Feature","properties":{"kind":"expressway","name":"中国自動車道"},"geometry":{"type":"LineString","coordinates":[[135.3869897,34.8095478],[135.3864883,34.8094206],[135.3857518,34.8092161],[135.3853343,34.8090865],[135.3849113,34.8089435],[135.3841131,34.8086388],[135.3832768,34.8083005],[135.3826829,34.8080382],[135.382164,34.8077949],[135.3814126,34.8074348],[135.3806059,34.8070509],[135.3797979,34.8066935],[135.3791563,34.806417],[135.3786485,34.8062178],[135.3782278,34.8060655],[135.3778463,34.8059383],[135.3774675,34.8058266],[135.3770817,34.8057194],[135.3767063,34.8056217],[135.3763363,34.8055396],[135.3759784,34.8054743],[135.375599,34.8054168],[135.3752251,34.8053749],[135.3747558,34.8053369],[135.3742947,34.8053142]]}},{"type":"Feature","properties":{"kind":"expressway","name":"中国自動車道"},"geometry":{"type":"LineString","coordinates":[[135.3964669,34.8108166],[135.3979998,34.8109255],[135.3996247,34.8110265],[135.4009737,34.8110933],[135.4030057,34.8111635],[135.4034358,34.8111743],[135.4060183,34.8112061],[135.4085684,34.8112039],[135.4102215,34.811186]]}},{"type":"Feature","properties":{"kind":"expressway","name":"新名神高速道路"},"geometry":{"type":"LineString","coordinates":[[135.2935555,34.8638429],[135.2947878,34.863865],[135.29574,34.863905],[135.2965528,34.8639598],[135.2972074,34.864015],[135.297768,34.8640599],[135.298298,34.8641179],[135.2989206,34.8641913],[135.2996289,34.8643],[135.3004086,34.8644292],[135.301333,34.8645951],[135.3021652,34.8647756],[135.3029672,34.8649704],[135.3037102,34.8651612],[135.3043478,34.8653315],[135.3053208,34.8656294],[135.306036,34.8658643],[135.3070135,34.8662136],[135.3079591,34.8665893],[135.3089715,34.8670167]]}},{"type":"Feature","properties":{"kind":"expressway","name":"新名神高速道路"},"geometry":{"type":"LineString","coordinates":[[135.3238271,34.8733091],[135.3217951,34.8725889],[135.3204273,34.8720735]]}},{"type":"Feature","properties":{"kind":"expressway","name":"新名神高速道路"},"geometry":{"type":"LineString","coordinates":[[135.341638,34.8836758],[135.3406821,34.8832101],[135.3400296,34.8828625],[135.3392506,34.8824253],[135.3384648,34.8819249],[135.3375932,34.8813368],[135.3360568,34.8802254],[135.3349755,34.8794145],[135.3334581,34.8782465],[135.3323955,34.8774851],[135.331293,34.8767608],[135.3305151,34.8762901],[135.3297897,34.8758785],[135.3291286,34.875527],[135.3283495,34.8751311],[135.3274575,34.8747264],[135.3264209,34.8742849],[135.3255691,34.8739444],[135.3238271,34.8733091]]}},{"type":"Feature","properties":{"kind":"expressway","name":"新名神高速道路"},"geometry":{"type":"LineString","coordinates":[[135.2935523,34.8637249],[135.2928021,34.863736],[135.292052,34.8637586],[135.2900891,34.8638394]]}},{"type":"Feature","properties":{"kind":"road","name":"国道176号"},"geometry":{"type":"LineString","coordinates":[[135.3518495,34.8089784],[135.3518558,34.8089966],[135.3519107,34.8091177],[135.3521338,34.8096955],[135.3522092,34.8098104],[135.3522894,34.8098746],[135.3524179,34.8099286],[135.3525405,34.8099505],[135.3534632,34.8098617],[135.353611,34.8098617],[135.3538251,34.8099186],[135.3538982,34.809938],[135.3541257,34.8100534],[135.3544683,34.8102271],[135.3550143,34.810504],[135.3555438,34.8107983],[135.3560955,34.8110841],[135.3566884,34.8113911],[135.35785,34.8120052],[135.3578932,34.8120281],[135.3586087,34.8124063],[135.3587657,34.8124914],[135.3594101,34.8128353],[135.3596563,34.8130172],[135.3597411,34.8130935]]}},{"type":"Feature","properties":{"kind":"road","name":"国道176号"},"geometry":{"type":"LineString","coordinates":[[135.3800267,34.8185461],[135.3800687,34.8185459],[135.3804756,34.8185355],[135.3809622,34.8185258],[135.3815541,34.8185139],[135.3817971,34.8185079],[135.3825626,34.818489],[135.382973,34.8184789],[135.3830857,34.8184761],[135.3831906,34.8184735],[135.3835794,34.8184928],[135.3837795,34.8185028],[135.3842145,34.8185418],[135.3846778,34.8186496],[135.3854756,34.8189044],[135.3868628,34.8193991],[135.3875707,34.8196887],[135.3877533,34.8197617],[135.3887095,34.820092],[135.3890041,34.8202004],[135.389437,34.8204298],[135.3894903,34.820458],[135.3895979,34.8205426],[135.3898778,34.8207629],[135.3901305,34.8209818],[135.3901487,34.8209978],[135.3902575,34.8210938]]}},{"type":"Feature","properties":{"kind":"road","name":"国道176号"},"geometry":{"type":"LineString","coordinates":[[135.3524765,34.8076697],[135.3526051,34.8076463],[135.3535777,34.8074293],[135.3538309,34.8073681],[135.3541313,34.807302],[135.3546466,34.8071822],[135.3548039,34.8071437],[135.3550672,34.8070874],[135.3551533,34.8070693],[135.3552605,34.8070459],[135.3556071,34.8069701],[135.3562239,34.8068351],[135.3568913,34.8066845],[135.3573963,34.8065706],[135.3577097,34.8064995],[135.3579346,34.8064485],[135.358486,34.8063235],[135.3587038,34.806274],[135.3589085,34.8062276],[135.3599463,34.8059993]]}},{"type":"Feature","properties":{"kind":"road","name":"国道176号"},"geometry":{"type":"LineString","coordinates":[[135.3523854,34.807612],[135.3523487,34.8076214],[135.3522911,34.8076356],[135.3511522,34.8078839],[135.3510377,34.8079098],[135.3505339,34.8080236],[135.350094,34.808123],[135.3499983,34.8081444],[135.3490397,34.8083586],[135.3489957,34.8083687],[135.3482012,34.8085369],[135.3478916,34.8086025],[135.347708,34.8086414]]}},{"type":"Feature","properties":{"kind":"road","name":"国道176号"},"geometry":{"type":"LineString","coordinates":[[135.347708,34.8086414],[135.3473809,34.8087163],[135.3472312,34.8087651],[135.3471046,34.8088063],[135.3467523,34.8089211],[135.3456366,34.8093473],[135.3454433,34.8094205],[135.3453683,34.8094495],[135.3443158,34.8098346],[135.3441924,34.8098791]]}},{"type":"Feature","properties":{"kind":"road","name":"国道176号"},"geometry":{"type":"LineString","coordinates":[[135.3658547,34.8040607],[135.3660993,34.8039684],[135.3677504,34.8034056],[135.3680193,34.8033265],[135.3682988,34.8032638],[135.36878,34.803183],[135.36911,34.8031534],[135.3694642,34.8031362],[135.3699284,34.8031374],[135.3700568,34.803148]]}},{"type":"Feature","properties":{"kind":"road","name":"国道176号"},"geometry":{"type":"LineString","coordinates":[[135.3374875,34.8128388],[135.3400116,34.8113181]]}},{"type":"Feature","properties":{"kind":"road","name":"国道176号"},"geometry":{"type":"LineString","coordinates":[[135.3610948,34.8146793],[135.3611768,34.8147746],[135.3612686,34.8148813],[135.3615072,34.8151156],[135.3615162,34.8151245],[135.3617018,34.8152815],[135.361813,34.8153756],[135.3619235,34.8154623],[135.3621664,34.8156528],[135.3622841,34.8157385],[135.3624858,34.8158667],[135.362664,34.8159828],[135.3627923,34.8160664],[135.3629223,34.8161351],[135.3631899,34.8162631],[135.3631982,34.8162672],[135.363308,34.8163214]]}},{"type":"Feature","properties":{"kind":"road","name":"国道176号"},"geometry":{"type":"LineString","coordinates":[[135.3700568,34.803148],[135.3704551,34.8031877],[135.3705709,34.8031993],[135.3708091,34.8032376],[135.3709365,34.8032669],[135.3709984,34.8032806],[135.3711735,34.8033218],[135.3714166,34.8033858],[135.3715467,34.8034224],[135.3715943,34.8034384],[135.3720284,34.8035846],[135.3721994,34.8036419],[135.3727251,34.8038459],[135.3728603,34.8038997],[135.3731909,34.8040433],[135.3733941,34.8041232],[135.3735555,34.8041824]]}},{"type":"Feature","properties":{"kind":"road","name":"国道176号"},"geometry":{"type":"LineString","coordinates":[[135.3687695,34.8031003],[135.3682839,34.8031816],[135.3682296,34.8031934],[135.3679723,34.8032492],[135.3677079,34.803322],[135.36741,34.8034184],[135.3672976,34.8034564],[135.3669865,34.8035665],[135.3663147,34.803808],[135.3657076,34.8040263]]}},{"type":"Feature","properties":{"kind":"road","name":"国道176号"},"geometry":{"type":"LineString","coordinates":[[135.3399568,34.8112536],[135.3379518,34.8124671]]}},{"type":"Feature","properties":{"kind":"road","name":"国道176号"},"geometry":{"type":"LineString","coordinates":[[135.3599463,34.8059993],[135.3602869,34.8059166],[135.3606921,34.805834],[135.3616719,34.8055398],[135.3622265,34.8053464]]}},{"type":"Feature","properties":{"kind":"road","name":"国道176号"},"geometry":{"type":"LineString","coordinates":[[135.3638371,34.8047826],[135.365423,34.8042114],[135.3658547,34.8040607]]}},{"type":"Feature","properties":{"kind":"road","name":"国道176号"},"geometry":{"type":"LineString","coordinates":[[135.3657076,34.8040263],[135.3653879,34.8041402],[135.3638027,34.8047044]]}},{"type":"Feature","properties":{"kind":"road","name":"国道176号"},"geometry":{"type":"LineString","coordinates":[[135.3501246,34.808194],[135.3504732,34.8081158],[135.3510617,34.8079838],[135.3511757,34.8079582],[135.3517558,34.8078285],[135.3519959,34.8077748],[135.3523127,34.8077039],[135.3523532,34.807696]]}},{"type":"Feature","properties":{"kind":"road","name":"国道176号"},"geometry":{"type":"LineString","coordinates":[[135.3740219,34.8183229],[135.3749869,34.8185112],[135.3750642,34.818522],[135.3755006,34.8185827],[135.3758535,34.8186008],[135.3762375,34.8186203],[135.3772581,34.8186078],[135.3774418,34.8186055]]}},{"type":"Feature","properties":{"kind":"road","name":"国道176号"},"geometry":{"type":"LineString","coordinates":[[135.3655786,34.8171502],[135.3658148,34.8172384],[135.366052,34.817327],[135.3664962,34.8174758],[135.3666942,34.8175251],[135.3668629,34.817567]]}},{"type":"Feature","properties":{"kind":"road","name":"国道176号"},"geometry":{"type":"LineString","coordinates":[[135.3647803,34.8168721],[135.3651266,34.8169927],[135.3653551,34.8170723],[135.3655786,34.8171502]]}},{"type":"Feature","properties":{"kind":"road","name":"国道176号"},"geometry":{"type":"LineString","coordinates":[[135.3679353,34.8177848],[135.3679659,34.8177885],[135.3682047,34.8178171],[135.3684868,34.8178508],[135.3687037,34.81787],[135.3689138,34.817895],[135.3690182,34.8179025],[135.3691497,34.817916]]}},{"type":"Feature","properties":{"kind":"road","name":"国道176号"},"geometry":{"type":"LineString","coordinates":[[135.3515325,34.8083921],[135.3516279,34.80848],[135.3516792,34.8085772],[135.3516974,34.8086208],[135.3518119,34.8088952],[135.3518234,34.8089196]]}},{"type":"Feature","properties":{"kind":"road","name":"国道176号"},"geometry":{"type":"LineString","coordinates":[[135.3774418,34.8186055],[135.3777375,34.818598],[135.3783235,34.8185831],[135.3796027,34.8185506],[135.3797685,34.818547]]}},{"type":"Feature","properties":{"kind":"road","name":"国道176号"},"geometry":{"type":"LineString","coordinates":[[135.3691497,34.817916],[135.3692916,34.8179299],[135.3695104,34.8179433],[135.3698226,34.8179568],[135.3700855,34.8179578],[135.3704608,34.8179564],[135.3711041,34.8179233],[135.3711651,34.8179194]]}},{"type":"Feature","properties":{"kind":"road","name":"国道176号"},"geometry":{"type":"LineString","coordinates":[[135.3902575,34.8210938],[135.3903911,34.8212094]]}},{"type":"Feature","properties":{"kind":"road","name":"国道176号"},"geometry":{"type":"LineString","coordinates":[[135.3797685,34.818547],[135.3800267,34.8185461]]}},{"type":"Feature","properties":{"kind":"road","name":"国道176号"},"geometry":{"type":"LineString","coordinates":[[135.3364147,34.8134422],[135.3362586,34.8135996],[135.3361203,34.8137495],[135.3359949,34.8139166],[135.3358517,34.8141462],[135.3354724,34.8148404],[135.3354133,34.8149344],[135.3350466,34.8156157],[135.3349184,34.8158729],[135.3345075,34.8166143],[135.3342764,34.8170453],[135.3340258,34.8175097]]}}]}